ORBCOMM FM05            
1 25117U 97084F   25186.66384398  .00000836  00000+0  27290-3 0  9992
2 25117  45.0153 279.3395 0003442 268.9319  91.1138 14.45986249443281
ORBCOMM FM06            
1 25118U 97084G   25187.28278464  .00000903  00000+0  29072-3 0  9993
2 25118  45.0141 276.0845 0002734 257.3941 138.7600 14.46119619444316
ORBCOMM FM07            
1 25119U 97084H   25186.66752669  .00000856  00000+0  27765-3 0  9993
2 25119  45.0141 279.8079 0004261 271.9444  88.0919 14.46116581444195
ORBCOMM FM03            
1 25158U 98007B   25186.74342045  .00000635  00000+0  26873-3 0  9998
2 25158 107.9655 173.7193 0045752 218.4366 141.3511 14.34537967426704
ORBCOMM FM04            
1 25159U 98007C   25186.93359300  .00000560  00000+0  24168-3 0  9994
2 25159 107.9645 177.3447 0041479 215.7411 144.0950 14.34784830427025
ORBCOMM FM17            
1 25413U 98046A   25187.19415179  .00000545  00000+0  23835-3 0  9999
2 25413  44.9929 167.9002 0005040 302.1788  57.8570 14.35118987406073
ORBCOMM FM18            
1 25414U 98046B   25186.75315878  .00000828  00000+0  31404-3 0  9991
2 25414  44.9933  86.8825 0005831  12.5009 347.5983 14.38592169406929
ORBCOMM FM19            
1 25415U 98046C   25186.93031007  .00000810  00000+0  30938-3 0  9993
2 25415  44.9945  88.0700 0004648   7.1381  94.0119 14.38400675406900
